[{"OBJECT_NAME":"STARLINK-34308","OBJECT_ID":"2025-120C","EPOCH":"2025-11-11T05:58:21.587808","MEAN_MOTION":15.30189028,"ECCENTRICITY":0.00015048,"INCLINATION":53.1609,"RA_OF_ASC_NODE":306.7503,"ARG_OF_PERICENTER":80.1003,"MEAN_ANOMALY":280.0168,"EPHEMERIS_TYPE":0,"CLASSIFICATION_TYPE":"U","NORAD_CAT_ID":64258,"ELEMENT_SET_NO":999,"REV_AT_EPOCH":2573,"BSTAR":0.00077077859,"MEAN_MOTION_DOT":0.00022531,"MEAN_MOTION_DDOT":0},{"OBJECT_NAME":"STARLINK-34306","OBJECT_ID":"2025-120D","EPOCH":"2025-11-11T07:11:07.113696","MEAN_MOTION":15.30200915,"ECCENTRICITY":0.00015217,"INCLINATION":53.1608,"RA_OF_ASC_NODE":306.3521,"ARG_OF_PERICENTER":77.3618,"MEAN_ANOMALY":282.7553,"EPHEMERIS_TYPE":0,"CLASSIFICATION_TYPE":"U","NORAD_CAT_ID":64259,"ELEMENT_SET_NO":999,"REV_AT_EPOCH":2574,"BSTAR":0.0014804692,"MEAN_MOTION_DOT":0.00043748,"MEAN_MOTION_DDOT":0},{"OBJECT_NAME":"STARLINK-34281","OBJECT_ID":"2025-120E","EPOCH":"2025-11-11T06:02:54.228192","MEAN_MOTION":15.30168727,"ECCENTRICITY":0.00012187,"INCLINATION":53.1604,"RA_OF_ASC_NODE":306.7654,"ARG_OF_PERICENTER":100.6711,"MEAN_ANOMALY":259.4427,"EPHEMERIS_TYPE":0,"CLASSIFICATION_TYPE":"U","NORAD_CAT_ID":64260,"ELEMENT_SET_NO":999,"REV_AT_EPOCH":2573,"BSTAR":0.0012900435,"MEAN_MOTION_DOT":0.00038007,"MEAN_MOTION_DDOT":0},{"OBJECT_NAME":"STARLINK-34297","OBJECT_ID":"2025-120F","EPOCH":"2025-11-11T06:07:27.273792","MEAN_MOTION":15.30197826,"ECCENTRICITY":0.0001418,"INCLINATION":53.1604,"RA_OF_ASC_NODE":306.7887,"ARG_OF_PERICENTER":95.5657,"MEAN_ANOMALY":264.5505,"EPHEMERIS_TYPE":0,"CLASSIFICATION_TYPE":"U","NORAD_CAT_ID":64261,"ELEMENT_SET_NO":999,"REV_AT_EPOCH":2568,"BSTAR":0.0019547099,"MEAN_MOTION_DOT":0.00057983,"MEAN_MOTION_DDOT":0},{"OBJECT_NAME":"STARLINK-34325","OBJECT_ID":"2025-120G","EPOCH":"2025-11-11T06:43:55.400448","MEAN_MOTION":15.30210675,"ECCENTRICITY":0.00013316,"INCLINATION":53.1586,"RA_OF_ASC_NODE":306.9409,"ARG_OF_PERICENTER":92.7941,"MEAN_ANOMALY":267.3212,"EPHEMERIS_TYPE":0,"CLASSIFICATION_TYPE":"U","NORAD_CAT_ID":64262,"ELEMENT_SET_NO":999,"REV_AT_EPOCH":2578,"BSTAR":0.0011278037,"MEAN_MOTION_DOT":0.00033204,"MEAN_MOTION_DDOT":0},{"OBJECT_NAME":"STARLINK-34276","OBJECT_ID":"2025-120H","EPOCH":"2025-11-11T05:53:46.702752","MEAN_MOTION":15.30222444,"ECCENTRICITY":0.00010951,"INCLINATION":53.1611,"RA_OF_ASC_NODE":306.7282,"ARG_OF_PERICENTER":71.1459,"MEAN_ANOMALY":288.966,"EPHEMERIS_TYPE":0,"CLASSIFICATION_TYPE":"U","NORAD_CAT_ID":64263,"ELEMENT_SET_NO":999,"REV_AT_EPOCH":2578,"BSTAR":0.0015945082,"MEAN_MOTION_DOT":0.00047199,"MEAN_MOTION_DDOT":0},{"OBJECT_NAME":"STARLINK-34333","OBJECT_ID":"2025-120J","EPOCH":"2025-11-11T07:08:04.586784","MEAN_MOTION":15.30205473,"ECCENTRICITY":0.00012242,"INCLINATION":53.1599,"RA_OF_ASC_NODE":306.3423,"ARG_OF_PERICENTER":97.9206,"MEAN_ANOMALY":262.1934,"EPHEMERIS_TYPE":0,"CLASSIFICATION_TYPE":"U","NORAD_CAT_ID":64264,"ELEMENT_SET_NO":999,"REV_AT_EPOCH":2574,"BSTAR":0.0009697087,"MEAN_MOTION_DOT":0.00028476,"MEAN_MOTION_DDOT":0},{"OBJECT_NAME":"STARLINK-34240","OBJECT_ID":"2025-120K","EPOCH":"2025-11-11T06:59:07.297152","MEAN_MOTION":15.30209697,"ECCENTRICITY":0.00014492,"INCLINATION":53.1593,"RA_OF_ASC_NODE":307.01,"ARG_OF_PERICENTER":105.7672,"MEAN_ANOMALY":254.3489,"EPHEMERIS_TYPE":0,"CLASSIFICATION_TYPE":"U","NORAD_CAT_ID":64265,"ELEMENT_SET_NO":999,"REV_AT_EPOCH":2578,"BSTAR":0.001256415,"MEAN_MOTION_DOT":0.00037049,"MEAN_MOTION_DDOT":0},{"OBJECT_NAME":"STARLINK-34315","OBJECT_ID":"2025-120L","EPOCH":"2025-11-11T06:36:19.605888","MEAN_MOTION":15.30212812,"ECCENTRICITY":0.000114,"INCLINATION":53.1581,"RA_OF_ASC_NODE":306.9104,"ARG_OF_PERICENTER":88.4489,"MEAN_ANOMALY":271.6643,"EPHEMERIS_TYPE":0,"CLASSIFICATION_TYPE":"U","NORAD_CAT_ID":64266,"ELEMENT_SET_NO":999,"REV_AT_EPOCH":2572,"BSTAR":0.0018657669,"MEAN_MOTION_DOT":0.00055334,"MEAN_MOTION_DDOT":0},{"OBJECT_NAME":"STARLINK-34321","OBJECT_ID":"2025-120M","EPOCH":"2025-11-11T07:14:09.420288","MEAN_MOTION":15.3020586,"ECCENTRICITY":0.00015209,"INCLINATION":53.1607,"RA_OF_ASC_NODE":306.3638,"ARG_OF_PERICENTER":72.7605,"MEAN_ANOMALY":287.3562,"EPHEMERIS_TYPE":0,"CLASSIFICATION_TYPE":"U","NORAD_CAT_ID":64267,"ELEMENT_SET_NO":999,"REV_AT_EPOCH":2579,"BSTAR":0.0019615894,"MEAN_MOTION_DOT":0.00058204,"MEAN_MOTION_DDOT":0},{"OBJECT_NAME":"STARLINK-34319","OBJECT_ID":"2025-120N","EPOCH":"2025-11-11T06:05:55.928256","MEAN_MOTION":15.30207332,"ECCENTRICITY":0.00013297,"INCLINATION":53.1596,"RA_OF_ASC_NODE":306.7769,"ARG_OF_PERICENTER":117.6203,"MEAN_ANOMALY":242.4933,"EPHEMERIS_TYPE":0,"CLASSIFICATION_TYPE":"U","NORAD_CAT_ID":64268,"ELEMENT_SET_NO":999,"REV_AT_EPOCH":2578,"BSTAR":0.0013380495,"MEAN_MOTION_DOT":0.0003949,"MEAN_MOTION_DDOT":0},{"OBJECT_NAME":"STARLINK-34298","OBJECT_ID":"2025-120P","EPOCH":"2025-11-11T07:18:43.061184","MEAN_MOTION":15.30200438,"ECCENTRICITY":0.00013852,"INCLINATION":53.1607,"RA_OF_ASC_NODE":306.3852,"ARG_OF_PERICENTER":75.8747,"MEAN_ANOMALY":284.2407,"EPHEMERIS_TYPE":0,"CLASSIFICATION_TYPE":"U","NORAD_CAT_ID":64269,"ELEMENT_SET_NO":999,"REV_AT_EPOCH":2569,"BSTAR":0.0013367553,"MEAN_MOTION_DOT":0.00039443,"MEAN_MOTION_DDOT":0},{"OBJECT_NAME":"STARLINK-34219","OBJECT_ID":"2025-120Q","EPOCH":"2025-11-11T05:14:25.840896","MEAN_MOTION":15.30214649,"ECCENTRICITY":0.00018639,"INCLINATION":53.1597,"RA_OF_ASC_NODE":307.2644,"ARG_OF_PERICENTER":106.2464,"MEAN_ANOMALY":253.8742,"EPHEMERIS_TYPE":0,"CLASSIFICATION_TYPE":"U","NORAD_CAT_ID":64270,"ELEMENT_SET_NO":999,"REV_AT_EPOCH":2577,"BSTAR":0.00084367008,"MEAN_MOTION_DOT":0.00024723,"MEAN_MOTION_DDOT":0},{"OBJECT_NAME":"STARLINK-34342","OBJECT_ID":"2025-120R","EPOCH":"2025-11-11T06:21:07.810272","MEAN_MOTION":15.30208412,"ECCENTRICITY":0.00011776,"INCLINATION":53.1588,"RA_OF_ASC_NODE":306.8462,"ARG_OF_PERICENTER":94.9669,"MEAN_ANOMALY":265.1466,"EPHEMERIS_TYPE":0,"CLASSIFICATION_TYPE":"U","NORAD_CAT_ID":64271,"ELEMENT_SET_NO":999,"REV_AT_EPOCH":2573,"BSTAR":0.0020480651,"MEAN_MOTION_DOT":0.00060812,"MEAN_MOTION_DDOT":0},{"OBJECT_NAME":"STARLINK-34001","OBJECT_ID":"2025-120S","EPOCH":"2025-11-11T05:20:30.492960","MEAN_MOTION":15.30210744,"ECCENTRICITY":0.00014312,"INCLINATION":53.1588,"RA_OF_ASC_NODE":307.294,"ARG_OF_PERICENTER":99.1653,"MEAN_ANOMALY":260.9509,"EPHEMERIS_TYPE":0,"CLASSIFICATION_TYPE":"U","NORAD_CAT_ID":64272,"ELEMENT_SET_NO":999,"REV_AT_EPOCH":2567,"BSTAR":0.001118808,"MEAN_MOTION_DOT":0.00032935,"MEAN_MOTION_DDOT":0},{"OBJECT_NAME":"STARLINK-34334","OBJECT_ID":"2025-120T","EPOCH":"2025-11-11T07:03:31.044384","MEAN_MOTION":15.30208087,"ECCENTRICITY":0.00012931,"INCLINATION":53.1592,"RA_OF_ASC_NODE":306.319,"ARG_OF_PERICENTER":90.7634,"MEAN_ANOMALY":269.3515,"EPHEMERIS_TYPE":0,"CLASSIFICATION_TYPE":"U","NORAD_CAT_ID":64273,"ELEMENT_SET_NO":999,"REV_AT_EPOCH":2579,"BSTAR":0.0004878652,"MEAN_MOTION_DOT":0.00014121,"MEAN_MOTION_DDOT":0}]
