STARLINK-34308          
1 64258U 25120C   25315.24886097  .00022531  00000+0  77078-3 0  9999
2 64258  53.1609 306.7503 0001504  80.1003 280.0168 15.30189028 25736
STARLINK-34306          
1 64259U 25120D   25315.29938789  .00043748  00000+0  14805-2 0  9992
2 64259  53.1608 306.3521 0001521  77.3618 282.7553 15.30200915 25748
STARLINK-34281          
1 64260U 25120E   25315.25201653  .00038007  00000+0  12900-2 0  9999
2 64260  53.1604 306.7654 0001218 100.6711 259.4427 15.30168727 25738
STARLINK-34297          
1 64261U 25120F   25315.25517678  .00057983  00000+0  19547-2 0  9995
2 64261  53.1604 306.7887 0001418  95.5657 264.5505 15.30197826 25680
STARLINK-34325          
1 64262U 25120G   25315.28050232  .00033204  00000+0  11278-2 0  9990
2 64262  53.1586 306.9409 0001331  92.7941 267.3212 15.30210675 25786
STARLINK-34276          
1 64263U 25120H   25315.24567943  .00047199  00000+0  15945-2 0  9992
2 64263  53.1611 306.7282 0001095  71.1459 288.9660 15.30222444 25788
STARLINK-34333          
1 64264U 25120J   25315.29727531  .00028476  00000+0  96971-3 0  9995
2 64264  53.1599 306.3423 0001224  97.9206 262.1934 15.30205473 25744
STARLINK-34240          
1 64265U 25120K   25315.29105668  .00037049  00000+0  12564-2 0  9998
2 64265  53.1593 307.0100 0001449 105.7672 254.3489 15.30209697 25787
STARLINK-34315          
1 64266U 25120L   25315.27522692  .00055334  00000+0  18658-2 0  9994
2 64266  53.1581 306.9104 0001140  88.4489 271.6643 15.30212812 25729
STARLINK-34321          
1 64267U 25120M   25315.30149792  .00058204  00000+0  19616-2 0  9999
2 64267  53.1607 306.3638 0001520  72.7605 287.3562 15.30205860 25799
STARLINK-34319          
1 64268U 25120N   25315.25411954  .00039490  00000+0  13380-2 0  9994
2 64268  53.1596 306.7769 0001329 117.6203 242.4933 15.30207332 25785
STARLINK-34298          
1 64269U 25120P   25315.30466506  .00039443  00000+0  13368-2 0  9998
2 64269  53.1607 306.3852 0001385  75.8747 284.2407 15.30200438 25698
STARLINK-34219          
1 64270U 25120Q   25315.21835464  .00024723  00000+0  84367-3 0  9996
2 64270  53.1597 307.2644 0001863 106.2464 253.8742 15.30214649 25775
STARLINK-34342          
1 64271U 25120R   25315.26467373  .00060812  00000+0  20481-2 0  9997
2 64271  53.1588 306.8462 0001177  94.9669 265.1466 15.30208412 25733
STARLINK-34001          
1 64272U 25120S   25315.22257515  .00032935  00000+0  11188-2 0  9998
2 64272  53.1588 307.2940 0001431  99.1653 260.9509 15.30210744 25678
STARLINK-34334          
1 64273U 25120T   25315.29410931  .00014121  00000+0  48787-3 0  9992
2 64273  53.1592 306.3190 0001293  90.7634 269.3515 15.30208087 25793
